[{"OBJECT_NAME":"STARLINK-34681","OBJECT_ID":"2025-259S","EPOCH":"2026-03-09T21:44:54.042720","MEAN_MOTION":15.27602087,"ECCENTRICITY":0.00019215,"INCLINATION":43,"RA_OF_ASC_NODE":273.1825,"ARG_OF_PERICENTER":263.5308,"MEAN_ANOMALY":96.5325,"EPHEMERIS_TYPE":0,"CLASSIFICATION_TYPE":"U","NORAD_CAT_ID":66438,"ELEMENT_SET_NO":999,"REV_AT_EPOCH":1941,"BSTAR":0.0010530093,"MEAN_MOTION_DOT":0.00028848,"MEAN_MOTION_DDOT":0},{"OBJECT_NAME":"OV1-19","OBJECT_ID":"1969-025C","EPOCH":"2026-03-09T21:47:24.425376","MEAN_MOTION":9.583977,"ECCENTRICITY":0.26774515,"INCLINATION":104.7313,"RA_OF_ASC_NODE":210.85,"ARG_OF_PERICENTER":145.6894,"MEAN_ANOMALY":235.034,"EPHEMERIS_TYPE":0,"CLASSIFICATION_TYPE":"U","NORAD_CAT_ID":3825,"ELEMENT_SET_NO":999,"REV_AT_EPOCH":97573,"BSTAR":0.0005405909,"MEAN_MOTION_DOT":1.098e-5,"MEAN_MOTION_DDOT":0}]
